IRIDIUM 8 [+]           
1 24792U 97020A   17236.19108084  .00000128  00000-0  38597-4 0  9999
2 24792  86.3947 290.2571 0002218  94.0597 266.0853 14.34219702 62940
IRIDIUM 7 [+]           
1 24793U 97020B   17236.60313722  .00000077  00000-0  20438-4 0  9991
2 24793  86.3954 290.3735 0002150  90.3581 269.7861 14.34224461 62777
IRIDIUM 6 [+]           
1 24794U 97020C   17236.45747025  .00000141  00000-0  43451-4 0  9994
2 24794  86.3950 290.3625 0002329  93.7202 266.4260 14.34219689 62983
IRIDIUM 5 [+]           
1 24795U 97020D   17236.24179754  .00000187  00000-0  59545-4 0  9991
2 24795  86.3956 290.4715 0002406  92.1462 268.0010 14.34218491 63036
IRIDIUM 4 [-]           
1 24796U 97020E   17236.62918590  .00000101  00000-0  28591-4 0  9996
2 24796  86.3945 289.1889 0002206  92.8908  60.0617 14.35170509 63088
IRIDIUM 914 [-]         
1 24836U 97030A   17236.55878240  .00000133  00000-0  36866-4 0  9990
2 24836  86.3949 305.7980 0001032 137.4315 222.6964 14.38772002196670
IRIDIUM 12 [+]          
1 24837U 97030B   17236.48015542  .00000200  00000-0  64168-4 0  9992
2 24837  86.3985 321.5440 0002225  94.2821 332.0786 14.34224148 56734
IRIDIUM 10 [+]          
1 24839U 97030D   17236.61938042  .00000188  00000-0  60055-4 0  9994
2 24839  86.3985 321.4653 0002220  94.8158  35.4122 14.34219923 56749
IRIDIUM 13 [+]          
1 24840U 97030E   17236.33413403  .00000190  00000-0  60859-4 0  9999
2 24840  86.3994 321.7067 0003103  89.9750 270.1801 14.34219759 56746
IRIDIUM 16 [-]          
1 24841U 97030F   17236.31556369  .00000115  00000-0  32348-4 0  9996
2 24841  86.4067 321.4841 0004408  78.3072 281.8620 14.36729111 57361
IRIDIUM 911 [-]         
1 24842U 97030G   17236.59716737  .00000120  00000-0  28703-4 0  9990
2 24842  86.4495 322.1096 0013128 216.6195 143.4110 14.44974613 62832
IRIDIUM 15 [+]          
1 24869U 97034A   17236.40276119  .00000162  00000-0  46414-4 0  9993
2 24869  86.4223 353.5354 0002592 102.1459 258.0029 14.38611161 53741
IRIDIUM 17 [-]          
1 24870U 97034B   17236.39912087  .00000086  00000-0  22993-4 0  9995
2 24870  86.4005 351.5898 0002600  50.3196 309.8230 14.35769784 53969
IRIDIUM 920 [-]         
1 24871U 97034C   17236.56570322  .00000087  00000-0  21428-4 0  9990
2 24871  86.4015 337.5454 0013817 111.9627 248.3042 14.39482372 55923
IRIDIUM 18 [+]          
1 24872U 97034D   17236.39642073  .00000150  00000-0  42394-4 0  9991
2 24872  86.4250 353.5528 0002789 102.4159 257.7352 14.38611320 53726
IRIDIUM 921 [-]         
1 24873U 97034E   17236.43676710  .00001373  00000-0  79117-4 0  9993
2 24873  86.3930  33.7076 0010002 116.6008 243.6256 15.11450302 98407
IRIDIUM 26 [-]          
1 24903U 97043A   17236.41240565  .00000102  00000-0  28584-4 0  9991
2 24903  86.3954 226.2175 0002419  89.5973 270.5500 14.35267597 47758
IRIDIUM 25 [+]          
1 24904U 97043B   17236.58389441  .00000028  00000-0  29734-5 0  9993
2 24904  86.3945 226.8179 0002428  89.9962 270.1512 14.34218303 47424
IRIDIUM 46 [+]          
1 24905U 97043C   17236.45697229 -.00000032  00000-0 -18414-4 0  9995
2 24905  86.3953 226.8576 0002662  93.2632 266.8868 14.34215860 47619
IRIDIUM 23 [+]          
1 24906U 97043D   17236.47186615 -.00000041  00000-0 -21859-4 0  9997
2 24906  86.3961 226.9249 0002259  89.1071  20.4802 14.34215168 47624
IRIDIUM 22 [+]          
1 24907U 97043E   17236.49503273 -.00000033  00000-0 -18822-4 0  9990
2 24907  86.3957 227.5322 0002235  86.2682 273.8769 14.34215926 47627
DUMMY MASS 1 [-]        
1 24925U 97048A   17236.43652997  .00000086  00000-0  68032-5 0  9992
2 24925  86.3375  11.9355 0008141 145.2592 214.9165 14.85141773 81718
DUMMY MASS 2 [-]        
1 24926U 97048B   17236.48566603  .00000080  00000-0  60289-5 0  9996
2 24926  86.3373  13.0397 0008650 153.3334 206.8336 14.84909787 81328
IRIDIUM 29 [-]          
1 24944U 97051A   17236.46638746  .00000114  00000-0  33212-4 0  9999
2 24944  86.3928 258.3023 0002074  94.4496 265.6937 14.34614693 44224
IRIDIUM 32 [+]          
1 24945U 97051B   17236.45404703 -.00000045  00000-0 -23260-4 0  9990
2 24945  86.3927 258.5435 0002163  90.6353 269.5091 14.34221320 44205
IRIDIUM 33 [-]          
1 24946U 97051C   17236.44806181  .00000077  00000-0  20558-4 0  9996
2 24946  86.3842 258.1469 0008926  34.7917 325.3860 14.33563331 43814
IRIDIUM 28 [-]          
1 24948U 97051E   17236.50649273  .00000097  00000-0  26668-4 0  9992
2 24948  86.3932 257.4764 0002545  87.8714 272.2774 14.35562723 44384
IRIDIUM 30 [+]          
1 24949U 97051F   17236.55520244  .00369683 -96316-6  51869-3 0  9995
2 24949  86.3847 257.1523 0329702 286.7313  69.8009 15.50073130 44199
IRIDIUM 31 [+]          
1 24950U 97051G   17236.44131688  .00000016  00000-0 -14247-5 0  9997
2 24950  86.3925 258.6438 0002150  90.1269 270.0173 14.34217835 44192
IRIDIUM 19 [+]          
1 24965U 97056A   17236.49552561  .00000136  00000-0  41373-4 0  9991
2 24965  86.3947 290.1416 0002254  93.6889 266.4565 14.34219527 42349
IRIDIUM 35 [+]          
1 24966U 97056B   17236.57798162  .00000127  00000-0  38402-4 0  9999
2 24966  86.3946 290.1005 0002268  93.9466 266.1989 14.34219632 42054
IRIDIUM 36 [-]          
1 24967U 97056C   17236.29970939  .00000112  00000-0  31986-4 0  9997
2 24967  86.3959 289.2203 0002130  89.7982 270.3459 14.35614883 42633
IRIDIUM 37 [+]          
1 24968U 97056D   17236.55260844  .00000124  00000-0  37172-4 0  9990
2 24968  86.3949 290.2996 0002224  93.6230 266.5220 14.34219767 42126
IRIDIUM 34 [+]          
1 24969U 97056E   17236.57163505  .00000135  00000-0  41074-4 0  9997
2 24969  86.3949 290.2285 0002238  92.4719 267.6733 14.34219722 42348
IRIDIUM 43 [-]          
1 25039U 97069A   17236.41266637  .00177282  57936-5  96036-3 0  9993
2 25039  86.4051 346.1934 0280289 142.9417 219.1566 15.41090883 37102
IRIDIUM 41 [+]          
1 25040U 97069B   17236.48358085  .00000159  00000-0  49736-4 0  9990
2 25040  86.4002 353.4063 0002379  95.5219 264.6248 14.34215987 36105
IRIDIUM 40 [-]          
1 25041U 97069C   17236.57340915  .00051846 -66633-6  45238-3 0  9996
2 25041  86.3911 343.9878 0261740  19.2885 341.8047 15.35753629 37426
IRIDIUM 39 [B]          
1 25042U 97069D   17236.37867696  .00000144  00000-0  34542-4 0  9996
2 25042  86.3963 350.1164 0021253  86.9983 273.3651 14.46173547 36576
IRIDIUM 38 [-]          
1 25043U 97069E   17236.36780914  .00000109  00000-0  30732-4 0  9991
2 25043  86.4004 350.5526 0003475  79.5373 280.6216 14.36043272 36519
IRIDIUM 42 [-]          
1 25077U 97077A   17236.47803770 -.00000032  00000-0 -18277-4 0  9992
2 25077  86.4003 353.3476 0002530  83.3245 276.8238 14.34514482 31972
IRIDIUM 44 [-]          
1 25078U 97077B   17236.40235479  .00000135  00000-0  37933-4 0  9993
2 25078  86.4006 342.7878 0003648  71.1798 288.9795 14.38139347 33435
IRIDIUM 45 [+]          
1 25104U 97082A   17236.50480474 -.00000023  00000-0 -15157-4 0  9999
2 25104  86.3926 258.6456 0003172  85.5580 274.5978 14.34219773 30161
IRIDIUM 24 [-]          
1 25105U 97082B   17236.42634259  .00000072  00000-0  16505-4 0  9993
2 25105  86.3935 206.6377 0013570 115.0684 245.1925 14.39868274 32679
IRIDIUM 47 [+]          
1 25106U 97082C   17236.53309809 -.00000027  00000-0 -16624-4 0  9990
2 25106  86.3944 226.7080 0002251  89.1812 270.9642 14.34215968 29873
IRIDIUM 49 [+]          
1 25108U 97082E   17236.49796632 -.00000042  00000-0 -21945-4 0  9990
2 25108  86.3947 226.8273 0002265  87.5441  25.8341 14.34215543 30164
IRIDIUM 52 [+]          
1 25169U 98010A   17236.29606594  .00000174  00000-0  55057-4 0  9999
2 25169  86.3990 321.9213 0002205  93.8646 266.2802 14.34220398 21540
IRIDIUM 56 [+]          
1 25170U 98010B   17236.56879641  .00000223  00000-0  72461-4 0  9999
2 25170  86.4008 321.9192 0002502  90.9811 269.1672 14.34220612 21480
IRIDIUM 54 [+]          
1 25171U 98010C   17236.39131386  .00000187  00000-0  59752-4 0  9995
2 25171  86.3991 321.9029 0002197  94.0312 266.1134 14.34222783 21707
IRIDIUM 50 [+]          
1 25172U 98010D   17236.28338365  .00000196  00000-0  62959-4 0  9993
2 25172  86.3990 321.9037 0002151  95.5792 264.5649 14.34221522 21527
IRIDIUM 53 [+]          
1 25173U 98010E   17236.30253606  .00000185  00000-0  59144-4 0  9991
2 25173  86.3990 321.9024 0002222  93.8240 266.3210 14.34222854 21536
IRIDIUM 51 [S]          
1 25262U 98018A   17236.39403227  .00000149  00000-0  46183-4 0  9992
2 25262  86.3962 290.5322 0002470 108.3321 251.8144 14.34219245 20931
IRIDIUM 61 [+]          
1 25263U 98018B   17236.55895106  .00000113  00000-0  33272-4 0  9998
2 25263  86.3949 290.2622 0002257  93.6568 266.4886 14.34219628 16439
IRIDIUM 55 [+]          
1 25272U 98019A   17236.51936224 -.00000009  00000-0 -94953-5 0  9992
2 25272  86.4184 258.4238 0002293 100.2291 259.9166 14.38606990 15655
IRIDIUM 57 [-]          
1 25273U 98019B   17236.45656542  .00000095  00000-0  26878-4 0  9991
2 25273  86.3931 258.7648 0002104  91.5498 268.5939 14.34272846 15856
IRIDIUM 58 [+]          
1 25274U 98019C   17236.66469703 -.00000037  00000-0 -18477-4 0  9990
2 25274  86.4181 258.8722 0002169  94.2839 265.8607 14.38607857 15871
IRIDIUM 59 [+]          
1 25275U 98019D   17236.13059914 -.00000020  00000-0 -14157-4 0  9995
2 25275  86.3929 258.9462 0002090  90.4631 269.6804 14.34220197 15802
IRIDIUM 60 [+]          
1 25276U 98019E   17236.48579505 -.00000020  00000-0 -14142-4 0  9991
2 25276  86.3925 258.4143 0002196  89.0645 271.0802 14.34219608 15851
IRIDIUM 62 [+]          
1 25285U 98021A   17236.37752947  .00000014  00000-0 -20471-5 0  9990
2 25285  86.3992 195.4053 0002235  85.0758 275.0693 14.34214526 14798
IRIDIUM 63 [-]          
1 25286U 98021B   17236.59021819  .00000113  00000-0  32886-4 0  9993
2 25286  86.4021 195.7296 0002155  90.5453  27.0599 14.34676002 14576
